NORAD_CAT_ID,OBJECT_NAME,OBJECT_TYPE,EPOCH,MEAN_MOTION,ECCENTRICITY,INCLINATION,RA_OF_ASC_NODE,ARG_OF_PERICENTER,MEAN_ANOMALY,BSTAR,MEAN_MOTION_DOT,MEAN_MOTION_DDOT,TLE_LINE0,TLE_LINE1,TLE_LINE2,SEMIMAJOR_AXIS,PERIOD,APOGEE,PERIGEE,DECAYED
51134.0,STARLINK-3183,PAYLOAD,2023-01-26 08:44:42,15.08844395,0.0001703,53.2186,359.2619,92.5941,267.5246,0.00019894,2.88e-05,0.0,0 STARLINK-3183,1 51134U 22005AG  23026.36437781  .00002880  00000-0  19894-3 0  9997,2 51134  53.2186 359.2619 0001703  92.5941 267.5246 15.08844395 58144,6917.866999999999,95.437,540.91,538.554,0.0
51134.0,STARLINK-3183,PAYLOAD,2023-01-27 02:13:57,15.08829538,0.0001846,53.2184,355.9888,88.3801,271.7402,2.9525e-05,1.82e-06,0.0,0 STARLINK-3183,1 51134U 22005AG  23027.09302972  .00000182  00000-0  29525-4 0  9997,2 51134  53.2184 355.9888 0001846  88.3801 271.7402 15.08829538 58254,6917.911999999999,95.438,541.054,538.5,0.0
51134.0,STARLINK-3183,PAYLOAD,2023-01-27 07:00:07,15.08831031,0.0001679,53.2185,355.0965,90.9374,269.181,2.8279e-05,1.62e-06,0.0,0 STARLINK-3183,1 51134U 22005AG  23027.29175014  .00000162  00000-0  28279-4 0  9997,2 51134  53.2185 355.0965 0001679  90.9374 269.1810 15.08831031 57175,6917.908,95.438,540.934,538.611,0.0
51134.0,STARLINK-3183,PAYLOAD,2023-01-28 03:40:07,15.08854256,0.0001581,53.2174,351.2334,96.2425,263.8748,0.00051554,7.929999999999999e-05,0.0,0 STARLINK-3183,1 51134U 22005AG  23028.15286482  .00007930  00000-0  51554-3 0  9996,2 51134  53.2174 351.2334 0001581  96.2425 263.8748 15.08854256 58412,6917.837,95.437,540.7959999999999,538.6080000000001,0.0
51134.0,STARLINK-3183,PAYLOAD,2023-01-28 06:50:53,15.08861027,0.0001573,53.2168,350.6395,91.614,268.5033,0.00077439,0.00012065,0.0,0 STARLINK-3183,1 51134U 22005AG  23028.28534389  .00012065  00000-0  77439-3 0  9997,2 51134  53.2168 350.6395 0001573  91.6140 268.5033 15.08861027 57321,6917.816,95.436,540.769,538.593,0.0
51134.0,STARLINK-3183,PAYLOAD,2023-01-28 21:09:21,15.08854102,0.0001792,53.2171,347.9639,85.5646,274.5551,0.00038584,5.86e-05,0.0,0 STARLINK-3183,1 51134U 22005AG  23028.88150462  .00005860  00000-0  38584-3 0  9992,2 51134  53.2171 347.9639 0001792  85.5646 274.5551 15.08854102 57419,6917.837,95.437,540.942,538.463,0.0
51134.0,STARLINK-3183,PAYLOAD,2023-01-29 03:30:54,15.08856612,0.0001821,53.2172,346.774,84.9531,275.1669,0.00049298,7.57e-05,0.0,0 STARLINK-3183,1 51134U 22005AG  23029.14646256  .00007570  00000-0  49298-3 0  9997,2 51134  53.2172 346.7740 0001821  84.9531 275.1669 15.08856612 58561,6917.83,95.437,540.954,538.435,0.0
51134.0,STARLINK-3183,PAYLOAD,2023-01-29 21:00:08,15.0884412,0.0001487,53.2168,343.5032,76.9377,283.1781,0.00060453,9.347e-05,0.0,0 STARLINK-3183,1 51134U 22005AG  23029.87510285  .00009347  00000-0  60453-3 0  9999,2 51134  53.2168 343.5032 0001487  76.9377 283.1781 15.08844120 57566,6917.868,95.437,540.761,538.704,0.0
51134.0,STARLINK-3183,PAYLOAD,2023-01-30 06:32:27,15.0885456,0.0001657,53.217,341.7185,83.637,276.4811,0.00071502,0.00011114,0.0,0 STARLINK-3183,1 51134U 22005AG  23030.27254038  .00011114  00000-0  71502-3 0  9998,2 51134  53.2170 341.7185 0001657  83.6370 276.4811 15.08854560 58733,6917.836,95.437,540.847,538.555,0.0
51134.0,STARLINK-3183,PAYLOAD,2023-01-30 20:50:55,15.08841537,0.0001929,53.2177,339.0393,93.3223,266.799,0.00029858,4.467e-05,0.0,0 STARLINK-3183,1 51134U 22005AG  23030.86870233  .00004467  00000-0  29858-3 0  9994,2 51134  53.2177 339.0393 0001929  93.3223 266.7990 15.08841537 57715,6917.876,95.437,541.075,538.406,0.0
51134.0,STARLINK-3183,PAYLOAD,2023-01-31 04:47:51,15.08854001,0.000167,53.2182,337.5549,91.2441,268.8743,0.00062422,9.664e-05,0.0,0 STARLINK-3183,1 51134U 22005AG  23031.19989902  .00009664  00000-0  62422-3 0  9993,2 51134  53.2182 337.5549 0001670  91.2441 268.8743 15.08854001 58876,6917.838,95.437,540.858,538.547,0.0
51134.0,STARLINK-3183,PAYLOAD,2023-01-31 06:23:14,15.08856687,0.0001597,53.2181,337.2573,90.2894,269.8281,0.00082263,0.00012834,0.0,0 STARLINK-3183,1 51134U 22005AG  23031.26613885  .00012834  00000-0  82263-3 0  9993,2 51134  53.2181 337.2573 0001597  90.2894 269.8281 15.08856687 57776,6917.829,95.436,540.799,538.59,0.0
51134.0,STARLINK-3183,PAYLOAD,2023-02-01 03:03:15,15.08849984,0.0001771,53.2165,333.3912,85.2874,274.832,0.00040078,6.098e-05,0.0,0 STARLINK-3183,1 51134U 22005AG  23032.12725860  .00006098  00000-0  40078-3 0  9999,2 51134  53.2165 333.3912 0001771  85.2874 274.8320 15.08849984 59019,6917.85,95.437,540.94,538.49,0.0
51134.0,STARLINK-3183,PAYLOAD,2023-02-01 06:14:01,15.08852924,0.000169,53.2176,332.7976,87.5933,272.5253,0.00050713,7.795e-05,0.0,0 STARLINK-3183,1 51134U 22005AG  23032.25973764  .00007795  00000-0  50713-3 0  9993,2 51134  53.2176 332.7976 0001690  87.5933 272.5253 15.08852924 57921,6917.841,95.437,540.875,538.537,0.0
51134.0,STARLINK-3183,PAYLOAD,2023-02-02 02:54:02,15.08845889,0.000157,53.2164,328.9311,101.773,258.3438,0.00037487,5.684e-05,0.0,0 STARLINK-3183,1 51134U 22005AG  23033.12085896  .00005684  00000-0  37487-3 0  9998,2 51134  53.2164 328.9311 0001570 101.7730 258.3438 15.08845889 59166,6917.862,95.437,540.813,538.641,0.0
51134.0,STARLINK-3183,PAYLOAD,2023-02-02 06:04:48,15.08854674,0.0001614,53.2178,328.3373,97.0634,263.0542,0.00064704,0.00010029,0.0,0 STARLINK-3183,1 51134U 22005AG  23033.25333839  .00010029  00000-0  64704-3 0  9996,2 51134  53.2178 328.3373 0001614  97.0634 263.0542 15.08854674 58072,6917.836,95.437,540.817,538.584,0.0
51134.0,STARLINK-3183,PAYLOAD,2023-02-03 04:20:12,15.0884872,0.000155,53.2171,324.1732,96.7466,263.3703,0.00023106,3.392e-05,0.0,0 STARLINK-3183,1 51134U 22005AG  23034.18069646  .00003392  00000-0  23106-3 0  9997,2 51134  53.2171 324.1732 0001550  96.7466 263.3703 15.08848720 59322,6917.854,95.437,540.791,538.646,0.0
51134.0,STARLINK-3183,PAYLOAD,2023-02-04 04:10:59,15.08845799,0.0001472,53.2179,319.7139,88.536,271.5801,0.00023559,3.464e-05,0.0,0 STARLINK-3183,1 51134U 22005AG  23035.17429952  .00003464  00000-0  23559-3 0  9999,2 51134  53.2179 319.7139 0001472  88.5360 271.5801 15.08845799 59475,6917.863,95.437,540.746,538.709,0.0
51134.0,STARLINK-3183,PAYLOAD,2023-02-04 18:29:27,15.08841705,0.0001584,53.2174,317.0392,85.3994,274.7179,0.00016563,2.349e-05,0.0,0 STARLINK-3183,1 51134U 22005AG  23035.77046201  .00002349  00000-0  16563-3 0  9995,2 51134  53.2174 317.0392 0001584  85.3994 274.7179 15.08841705 59560,6917.875,95.437,540.836,538.644,0.0
51134.0,STARLINK-3183,PAYLOAD,2023-02-05 04:01:46,15.0885272,0.0001478,53.2162,315.2543,96.9242,263.1918,0.00032334,4.863e-05,0.0,0 STARLINK-3183,1 51134U 22005AG  23036.16789777  .00004863  00000-0  32334-3 0  9998,2 51134  53.2162 315.2543 0001478  96.9242 263.1918 15.08852720 59620,6917.842,95.437,540.729,538.684,0.0
51134.0,STARLINK-3183,PAYLOAD,2023-02-05 18:20:15,15.0883593,0.0001564,53.2171,312.5799,79.873,280.2438,6.6037e-05,7.63e-06,0.0,0 STARLINK-3183,1 51134U 22005AG  23036.76406526  .00000763  00000-0  66037-4 0  9995,2 51134  53.2171 312.5799 0001564  79.8730 280.2438 15.08835930 59712,6917.893,95.438,540.84,538.676,0.0
51134.0,STARLINK-3183,PAYLOAD,2023-02-05 21:31:01,15.08836281,0.0001419,53.2173,311.9849,83.4413,276.674,6.8574e-05,8.03e-06,0.0,0 STARLINK-3183,1 51134U 22005AG  23036.89654515  .00000803  00000-0  68574-4 0  9995,2 51134  53.2173 311.9849 0001419  83.4413 276.6740 15.08836281 58625,6917.892,95.438,540.738,538.775,0.0
51134.0,STARLINK-3183,PAYLOAD,2023-02-06 03:52:33,15.08848028,0.00014,53.2176,310.7937,89.0435,271.0718,0.00036217,5.482e-05,0.0,0 STARLINK-3183,1 51134U 22005AG  23037.16150238  .00005482  00000-0  36217-3 0  9995,2 51134  53.2176 310.7937 0001400  89.0435 271.0718 15.08848028 59772,6917.856,95.437,540.689,538.752,0.0
51134.0,STARLINK-3183,PAYLOAD,2023-02-06 21:21:48,15.08845545,0.0001387,53.2169,307.5228,94.613,265.502,0.0001986,2.875e-05,0.0,0 STARLINK-3183,1 51134U 22005AG  23037.89014260  .00002875  00000-0  19860-3 0  9997,2 51134  53.2169 307.5228 0001387  94.6130 265.5020 15.08845545 59886,6917.863,95.437,540.688,538.769,0.0
51134.0,STARLINK-3183,PAYLOAD,2023-02-07 03:43:20,15.08864592,0.0001332,53.2174,306.3334,83.0736,277.0408,0.0011568,0.00018183,0.0,0 STARLINK-3183,1 51134U 22005AG  23038.15510080  .00018183  00000-0  11568-2 0  9993,2 51134  53.2174 306.3334 0001332  83.0736 277.0408 15.08864592 59927,6917.805,95.436,540.592,538.749,0.0
51134.0,STARLINK-3183,PAYLOAD,2023-02-07 21:12:35,15.08849002,0.0001251,53.2174,303.0621,102.332,257.7813,0.00043064,6.574e-05,0.0,0 STARLINK-3183,1 51134U 22005AG  23038.88374013  .00006574  00000-0  43064-3 0  9995,2 51134  53.2174 303.0621 0001251 102.3320 257.7813 15.08849002 58927,6917.853,95.437,540.583,538.852,0.0
51134.0,STARLINK-3183,PAYLOAD,2023-02-08 05:09:30,15.08878269,0.0001076,53.2169,301.5753,103.4548,256.6564,0.0013012,0.00020503,0.0,0 STARLINK-3183,1 51134U 22005AG  23039.21493201  .00020503  00000-0  13012-2 0  9991,2 51134  53.2169 301.5753 0001076 103.4548 256.6564 15.08878269 60087,6917.763,95.435,540.373,538.884,0.0
51134.0,STARLINK-3183,PAYLOAD,2023-02-08 21:03:22,15.08842047,0.0001212,53.2166,298.6021,125.4067,234.7039,0.0010709,0.00016797,0.0,0 STARLINK-3183,1 51134U 22005AG  23039.87734142  .00016797  00000-0  10709-2 0  9995,2 51134  53.2166 298.6021 0001212 125.4067 234.7039 15.08842047 59076,6917.874,95.437,540.578,538.901,0.0
51134.0,STARLINK-3183,PAYLOAD,2023-02-09 05:00:18,15.08862017,5.51e-05,53.2164,297.1155,82.5224,277.5831,0.0027834,0.00044315,0.0,0 STARLINK-3183,1 51134U 22005AG  23040.20854254  .00044315  00000-0  27834-2 0  9995,2 51134  53.2164 297.1155 0000551  82.5224 277.5831 15.08862017 60233,6917.813,95.436,540.059,539.297,0.0
51134.0,STARLINK-3183,PAYLOAD,2023-02-09 20:54:09,15.08856916,7.31e-05,53.2161,294.1416,103.2325,256.8748,0.0021771,0.00034547,0.0,0 STARLINK-3183,1 51134U 22005AG  23040.87094867  .00034547  00000-0  21771-2 0  9994,2 51134  53.2161 294.1416 0000731 103.2325 256.8748 15.08856916 59225,6917.829,95.436,540.199,539.188,0.0
